API VERSION: 1.2
API SOURCE: NASA/JPL Horizons API



*******************************************************************************
Ephemeris / API_USER Mon Oct 30 14:06:28 2023 Pasadena, USA      / Horizons    
*******************************************************************************
Target body name: Moon (301)                      {source: DE441}
Center body name: Earth (399)                     {source: DE441}
Center-site name: GEOCENTRIC
*******************************************************************************
Start time      : A.D. 2065-Jan-01 00:00:00.0000 UT      
Stop  time      : A.D. 2066-Jan-01 00:00:00.0000 UT      
Step-size       : 60 minutes
*******************************************************************************
Target pole/equ : MOON_ME                         {East-longitude positive}
Target radii    : 1737.4, 1737.4, 1737.4 km       {Equator_a, b, pole_c}       
Center geodetic : 0.0, 0.0, -6378.137             {E-lon(deg),Lat(deg),Alt(km)}
Center cylindric: 0.0, 0.0, 0.0                   {E-lon(deg),Dxy(km),Dz(km)}
Center pole/equ : ITRF93                          {East-longitude positive}
Center radii    : 6378.137, 6378.137, 6356.752 km {Equator_a, b, pole_c}       
Target primary  : Earth
Vis. interferer : MOON (R_eq= 1737.400) km        {source: DE441}
Rel. light bend : Sun                             {source: DE441}
Rel. lght bnd GM: 1.3271E+11 km^3/s^2                                          
Atmos refraction: NO (AIRLESS)
RA format       : HMS
Time format     : CAL 
Calendar mode   : Mixed Julian/Gregorian
EOP file        : eop.231027.p240119                                           
EOP coverage    : DATA-BASED 1962-JAN-20 TO 2023-OCT-27. PREDICTS-> 2024-JAN-18
Units conversion: 1 au= 149597870.700 km, c= 299792.458 km/s, 1 day= 86400.0 s 
Table cut-offs 1: Elevation (-90.0deg=NO ),Airmass (>38.000=NO), Daylight (NO )
Table cut-offs 2: Solar elongation (  0.0,180.0=NO ),Local Hour Angle( 0.0=NO )
Table cut-offs 3: RA/DEC angular rate (     0.0=NO )                           
Table format    : Comma Separated Values (spreadsheet)
***********************************************************************************************************************************************
 Date__(UT)__HR:MN, , , R.A._(ICRF), DEC__(ICRF),      Illu%,  ObsSub-LON, ObsSub-LAT,  SunSub-LON, SunSub-LAT,    NP.ang,  NP.dist,     S-T-O,
***********************************************************************************************************************************************
$$SOE
 2065-Apr-27 21:00, , , 20 57 30.06, -16 08 03.0,   45.79285,    7.347464,  -1.371761,  272.554184,   1.521103,  345.0825, -926.802,   94.8262,
 2065-Apr-27 22:00, , , 20 59 35.60, -15 56 22.8,   45.36129,    7.334260,  -1.432285,  272.045687,   1.521155,  344.9279, -926.227,   95.3226,
 2065-Apr-27 23:00, , , 21 01 40.75, -15 44 38.9,   44.93061,    7.320456,  -1.492615,  271.537176,   1.521207,  344.7749, -925.654,   95.8184,
 2065-Apr-28 00:00, , , 21 03 45.51, -15 32 51.3,   44.50085,    7.306057,  -1.552746,  271.028654,   1.521260,  344.6235, -925.083,   96.3136,
 2065-Apr-28 01:00, , , 21 05 49.89, -15 21 00.2,   44.07203,    7.291069,  -1.612676,  270.520118,   1.521314,  344.4738, -924.514,   96.8082,
 2065-Apr-28 02:00, , , 21 07 53.89, -15 09 05.7,   43.64417,    7.275497,  -1.672398,  270.011570,   1.521369,  344.3256, -923.947,   97.3022,
 2065-Apr-28 03:00, , , 21 09 57.52, -14 57 07.7,   43.21731,    7.259347,  -1.731909,  269.503009,   1.521424,  344.1791, -923.383,   97.7956,
 2065-Apr-28 04:00, , , 21 12 00.78, -14 45 06.4,   42.79147,    7.242625,  -1.791205,  268.994436,   1.521481,  344.0341, -922.821,   98.2883,
 2065-Apr-28 05:00, , , 21 14 03.67, -14 33 01.9,   42.36667,    7.225336,  -1.850281,  268.485850,   1.521538,  343.8908, -922.261,   98.7805,
 2065-Apr-28 06:00, , , 21 16 06.20, -14 20 54.1,   41.94294,    7.207486,  -1.909133,  267.977251,   1.521596,  343.7490, -921.703,   99.2721,
 2065-Apr-28 07:00, , , 21 18 08.38, -14 08 43.3,   41.52031,    7.189079,  -1.967758,  267.468640,   1.521655,  343.6089, -921.147,   99.7631,
 2065-Apr-28 08:00, , , 21 20 10.20, -13 56 29.5,   41.09880,    7.170123,  -2.026151,  266.960017,   1.521714,  343.4703, -920.594,  100.2536,
 2065-Apr-28 09:00, , , 21 22 11.67, -13 44 12.7,   40.67844,    7.150621,  -2.084308,  266.451381,   1.521775,  343.3333, -920.043,  100.7434,
 2065-Apr-28 10:00, , , 21 24 12.79, -13 31 53.0,   40.25925,    7.130581,  -2.142225,  265.942733,   1.521835,  343.1979, -919.495,  101.2327,
 2065-Apr-28 11:00, , , 21 26 13.58, -13 19 30.4,   39.84125,    7.110007,  -2.199898,  265.434072,   1.521897,  343.0641, -918.950,  101.7214,
 2065-Apr-28 12:00, , , 21 28 14.03, -13 07 05.1,   39.42447,    7.088905,  -2.257324,  264.925399,   1.521959,  342.9319, -918.406,  102.2096,
 2065-Apr-28 13:00, , , 21 30 14.15, -12 54 37.2,   39.00894,    7.067280,  -2.314498,  264.416714,   1.522022,  342.8012, -917.866,  102.6972,
 2065-Apr-28 14:00, , , 21 32 13.94, -12 42 06.6,   38.59467,    7.045138,  -2.371417,  263.908017,   1.522085,  342.6722, -917.328,  103.1842,
 2065-Apr-28 15:00, , , 21 34 13.41, -12 29 33.4,   38.18169,    7.022485,  -2.428077,  263.399307,   1.522149,  342.5447, -916.792,  103.6707,
 2065-Apr-28 16:00, , , 21 36 12.57, -12 16 57.8,   37.77003,    6.999326,  -2.484474,  262.890586,   1.522214,  342.4187, -916.259,  104.1567,
 2065-Apr-28 17:00, , , 21 38 11.41, -12 04 19.8,   37.35970,    6.975667,  -2.540605,  262.381852,   1.522279,  342.2943, -915.729,  104.6421,
 2065-Apr-28 18:00, , , 21 40 09.94, -11 51 39.4,   36.95073,    6.951512,  -2.596466,  261.873106,   1.522345,  342.1715, -915.202,  105.1270,
 2065-Apr-28 19:00, , , 21 42 08.17, -11 38 56.7,   36.54315,    6.926868,  -2.652052,  261.364348,   1.522411,  342.0503, -914.677,  105.6113,
 2065-Apr-28 20:00, , , 21 44 06.09, -11 26 11.7,   36.13696,    6.901740,  -2.707362,  260.855577,   1.522477,  341.9305, -914.156,  106.0951,
 2065-Apr-28 21:00, , , 21 46 03.73, -11 13 24.6,   35.73221,    6.876134,  -2.762391,  260.346795,   1.522544,  341.8124, -913.637,  106.5784,
 2065-Apr-28 22:00, , , 21 48 01.07, -11 00 35.4,   35.32890,    6.850054,  -2.817135,  259.838001,   1.522612,  341.6958, -913.121,  107.0612,
 2065-Apr-28 23:00, , , 21 49 58.13, -10 47 44.2,   34.92706,    6.823507,  -2.871591,  259.329195,   1.522680,  341.5807, -912.607,  107.5434,
 2065-Apr-29 00:00, , , 21 51 54.90, -10 34 51.0,   34.52671,    6.796497,  -2.925757,  258.820378,   1.522748,  341.4672, -912.097,  108.0252,
 2065-Apr-29 01:00, , , 21 53 51.40, -10 21 55.9,   34.12787,    6.769031,  -2.979627,  258.311548,   1.522816,  341.3552, -911.590,  108.5064,
 2065-Apr-29 02:00, , , 21 55 47.63, -10 08 58.9,   33.73057,    6.741112,  -3.033200,  257.802707,   1.522885,  341.2448, -911.085,  108.9872,
 2065-Apr-29 03:00, , , 21 57 43.59, -09 56 00.1,   33.33482,    6.712748,  -3.086471,  257.293854,   1.522954,  341.1358, -910.584,  109.4674,
 2065-Apr-29 04:00, , , 21 59 39.28, -09 42 59.5,   32.94064,    6.683943,  -3.139438,  256.784989,   1.523023,  341.0285, -910.086,  109.9472,
 2065-Apr-29 05:00, , , 22 01 34.72, -09 29 57.3,   32.54806,    6.654702,  -3.192097,  256.276112,   1.523093,  340.9226, -909.591,  110.4265,
 2065-Apr-29 06:00, , , 22 03 29.91, -09 16 53.5,   32.15710,    6.625032,  -3.244444,  255.767224,   1.523163,  340.8182, -909.098,  110.9053,
 2065-Apr-29 07:00, , , 22 05 24.85, -09 03 48.1,   31.76777,    6.594936,  -3.296478,  255.258325,   1.523233,  340.7154, -908.609,  111.3836,
 2065-Apr-29 08:00, , , 22 07 19.54, -08 50 41.1,   31.38009,    6.564420,  -3.348194,  254.749414,   1.523303,  340.6141, -908.123,  111.8614,
 2065-Apr-29 09:00, , , 22 09 13.99, -08 37 32.8,   30.99409,    6.533490,  -3.399589,  254.240491,   1.523373,  340.5143, -907.641,  112.3388,
 2065-Apr-29 10:00, , , 22 11 08.21, -08 24 23.0,   30.60978,    6.502150,  -3.450661,  253.731557,   1.523444,  340.4160, -907.161,  112.8157,
 2065-Apr-29 11:00, , , 22 13 02.20, -08 11 11.9,   30.22719,    6.470406,  -3.501407,  253.222612,   1.523514,  340.3193, -906.685,  113.2921,
 2065-Apr-29 12:00, , , 22 14 55.97, -07 57 59.4,   29.84633,    6.438263,  -3.551822,  252.713655,   1.523584,  340.2240, -906.212,  113.7681,
 2065-Apr-29 13:00, , , 22 16 49.51, -07 44 45.8,   29.46722,    6.405727,  -3.601905,  252.204688,   1.523655,  340.1302, -905.742,  114.2436,
 2065-Apr-29 14:00, , , 22 18 42.83, -07 31 31.0,   29.08988,    6.372801,  -3.651653,  251.695709,   1.523725,  340.0380, -905.275,  114.7187,
 2065-Apr-29 15:00, , , 22 20 35.95, -07 18 15.0,   28.71433,    6.339491,  -3.701061,  251.186718,   1.523796,  339.9472, -904.812,  115.1933,
 2065-Apr-29 16:00, , , 22 22 28.86, -07 04 58.0,   28.34058,    6.305803,  -3.750129,  250.677717,   1.523866,  339.8579, -904.352,  115.6675,
 2065-Apr-29 17:00, , , 22 24 21.56, -06 51 40.0,   27.96866,    6.271741,  -3.798852,  250.168705,   1.523936,  339.7702, -903.895,  116.1413,
 2065-Apr-29 18:00, , , 22 26 14.07, -06 38 20.9,   27.59859,    6.237310,  -3.847227,  249.659681,   1.524006,  339.6839, -903.442,  116.6146,
 2065-Apr-29 19:00, , , 22 28 06.38, -06 25 01.0,   27.23037,    6.202515,  -3.895253,  249.150647,   1.524076,  339.5991, -902.992,  117.0875,
 2065-Apr-29 20:00, , , 22 29 58.51, -06 11 40.2,   26.86403,    6.167361,  -3.942927,  248.641602,   1.524146,  339.5158, -902.545,  117.5600,
 2065-Apr-29 21:00, , , 22 31 50.45, -05 58 18.6,   26.49959,    6.131853,  -3.990244,  248.132545,   1.524215,  339.4340, -902.102,  118.0321,
 2065-Apr-29 22:00, , , 22 33 42.22, -05 44 56.2,   26.13707,    6.095996,  -4.037204,  247.623479,   1.524285,  339.3536, -901.662,  118.5037,
 2065-Apr-29 23:00, , , 22 35 33.80, -05 31 33.1,   25.77647,    6.059794,  -4.083803,  247.114401,   1.524354,  339.2748, -901.226,  118.9750,
